[{"OBJECT_NAME":"FENGYUN 3D","OBJECT_ID":"2017-072A","EPOCH":"2026-03-09T23:43:29.243424","MEAN_MOTION":14.19714568,"ECCENTRICITY":0.00015402,"INCLINATION":99.0037,"RA_OF_ASC_NODE":41.6713,"ARG_OF_PERICENTER":13.7306,"MEAN_ANOMALY":346.3911,"EPHEMERIS_TYPE":0,"CLASSIFICATION_TYPE":"U","NORAD_CAT_ID":43010,"ELEMENT_SET_NO":999,"REV_AT_EPOCH":43091,"BSTAR":3.5759568e-5,"MEAN_MOTION_DOT":2.9e-7,"MEAN_MOTION_DDOT":0},{"OBJECT_NAME":"FENGYUN 1C DEB","OBJECT_ID":"1999-025DLA","EPOCH":"2026-03-06T12:15:30.127968","MEAN_MOTION":14.14236561,"ECCENTRICITY":0.00236243,"INCLINATION":98.6672,"RA_OF_ASC_NODE":86.4408,"ARG_OF_PERICENTER":280.5231,"MEAN_ANOMALY":79.3281,"EPHEMERIS_TYPE":0,"CLASSIFICATION_TYPE":"U","NORAD_CAT_ID":35122,"ELEMENT_SET_NO":999,"REV_AT_EPOCH":65051,"BSTAR":0.00036235396,"MEAN_MOTION_DOT":6.5e-6,"MEAN_MOTION_DDOT":0}]
